0 EGYPTSAT 1
1 31117U 07012A   13282.48019795  .00000548  00000-0  96760-4 0  1702
2 31117 097.8301 336.5388 0004313 259.1547 100.9180 14.71135692347814
0 EGYPTSAT 1
1 31117U 07012A   13282.82027717  .00000474  00000-0  84665-4 0  1713
2 31117 097.8302 336.8660 0004312 258.3017 101.7676 14.71135529347866
0 EGYPTSAT 1
1 31117U 07012A   13283.16035683  .00000537  00000-0  94898-4 0  1722
2 31117 097.8304 337.1932 0004351 256.7627 103.3108 14.71136270347914
0 EGYPTSAT 1
1 31117U 07012A   13283.36440410  .00000518  00000-0  91799-4 0  1739
2 31117 097.8302 337.3895 0004356 255.5634 104.5088 14.71136394347942
0 EGYPTSAT 1
1 31117U 07012A   13283.56845159  .00000493  00000-0  87826-4 0  1738
2 31117 097.8302 337.5857 0004360 254.3573 105.7156 14.71136561347974
0 EGYPTSAT 1
1 31117U 07012A   13283.84051484  .00000432  00000-0  77794-4 0  1746
2 31117 097.8303 337.8475 0004384 253.8674 106.2026 14.71136389348012
0 EGYPTSAT 1
1 31117U 07012A   13284.18059375  .00000569  00000-0  10014-3 0  1754
2 31117 097.8303 338.1744 0004394 252.2287 107.8457 14.71137673348066
0 EGYPTSAT 1
1 31117U 07012A   13284.45265655  .00000545  00000-0  96179-4 0  1766
2 31117 097.8302 338.4362 0004380 250.6739 109.4004 14.71137979348103
0 EGYPTSAT 1
1 31117U 07012A   13285.47289165  .00000756  00000-0  13047-3 0  1790
2 31117 097.8299 339.4172 0004398 246.8470 113.2285 14.71140387348253
0 EGYPTSAT 1
1 31117U 07012A   13285.81296970  .00000731  00000-0  12641-3 0  1804
2 31117 097.8302 339.7445 0004393 244.8414 115.2331 14.71140713348308
0 EGYPTSAT 1
1 31117U 07012A   13286.22106390  .00000728  00000-0  12592-3 0  1818
2 31117 097.8303 340.1370 0004395 243.0677 117.0084 14.71141189348365
0 EGYPTSAT 1
1 31117U 07012A   13286.49312643  .00000670  00000-0  11653-3 0  1821
2 31117 097.8304 340.3987 0004413 242.0227 118.0533 14.71141324348409
0 EGYPTSAT 1
1 31117U 07012A   13286.83320471  .00000500  00000-0  88884-4 0  1831
2 31117 097.8306 340.7261 0004451 240.5374 119.5361 14.71140756348456
0 EGYPTSAT 1
1 31117U 07012A   13287.17328333  .00000519  00000-0  91982-4 0  1848
2 31117 097.8305 341.0530 0004468 239.3241 120.7542 14.71141386348506
0 EGYPTSAT 1
1 31117U 07012A   13287.51336134  .00000379  00000-0  69221-4 0  1850
2 31117 097.8305 341.3799 0004444 238.1894 121.8879 14.71141199348553
0 EGYPTSAT 1
1 31117U 07012A   13287.92145496  .00000384  00000-0  70076-4 0  1861
2 31117 097.8303 341.7722 0004456 237.2581 122.8184 14.71141481348618
0 EGYPTSAT 1
1 31117U 07012A   13288.19351708  .00000487  00000-0  86705-4 0  1877
2 31117 097.8300 342.0337 0004442 236.9494 123.1299 14.71142504348657
0 EGYPTSAT 1
1 31117U 07012A   13288.53359439  .00000556  00000-0  97992-4 0  1882
2 31117 097.8298 342.3608 0004425 235.8161 124.2631 14.71143285348702
0 EGYPTSAT 1
1 31117U 07012A   13288.87367191  .00000658  00000-0  11461-3 0  1893
2 31117 097.8299 342.6878 0004419 234.4309 125.6490 14.71144053348754
0 EGYPTSAT 1
1 31117U 07012A   13289.21374894  .00000719  00000-0  12451-3 0  1900
2 31117 097.8297 343.0149 0004429 233.2270 126.8535 14.71144922348807
0 EGYPTSAT 1
1 31117U 07012A   13289.55382606  .00000818  00000-0  14061-3 0  1917
2 31117 097.8298 343.3421 0004425 230.7637 129.3200 14.71145975348850
0 EGYPTSAT 1
1 31117U 07012A   13289.89390323  .00000695  00000-0  12056-3 0  1925
2 31117 097.8303 343.6697 0004441 229.3845 130.6953 14.71145553348906
0 EGYPTSAT 1
1 31117U 07012A   13290.23398062  .00000647  00000-0  11275-3 0  1933
2 31117 097.8303 343.9966 0004487 227.4288 132.6539 14.71145892348951
0 EGYPTSAT 1
1 31117U 07012A   13290.37001147  .00000668  00000-0  11615-3 0  1945
2 31117 097.8305 344.1274 0004489 226.5412 133.5431 14.71146226348974
0 EGYPTSAT 1
1 31117U 07012A   13290.71008820  .00000649  00000-0  11312-3 0  1952
2 31117 097.8304 344.4543 0004512 225.0377 135.0469 14.71146701349029
0 EGYPTSAT 1
1 31117U 07012A   13290.84611886  .00000704  00000-0  12195-3 0  1961
2 31117 097.8305 344.5853 0004548 224.1580 135.9279 14.71147162349042
0 EGYPTSAT 1
1 31117U 07012A   13291.18619477  .00000800  00000-0  13761-3 0  1971
2 31117 097.8305 344.9125 0004591 223.2464 136.8396 14.71148336349096
0 EGYPTSAT 1
1 31117U 07012A   13291.52627095  .00000812  00000-0  13950-3 0  1988
2 31117 097.8305 345.2394 0004597 221.8892 138.1973 14.71149063349143
0 EGYPTSAT 1
1 31117U 07012A   13291.86634705  .00000831  00000-0  14270-3 0  1999
2 31117 097.8303 345.5663 0004587 220.5689 139.5159 14.71149534349191
0 EGYPTSAT 1
1 31117U 07012A   13292.20642305  .00000913  00000-0  15598-3 0  2001
2 31117 097.8306 345.8933 0004642 219.0135 141.0746 14.71150682349240
0 EGYPTSAT 1
1 31117U 07012A   13292.54649873  .00000933  00000-0  15921-3 0  2018
2 31117 097.8305 346.2205 0004675 217.8049 142.2833 14.71151416349293
0 EGYPTSAT 1
1 31117U 07012A   13292.88657465  .00000921  00000-0  15720-3 0  2026
2 31117 097.8306 346.5477 0004668 216.4193 143.6674 14.71151696349349
0 EGYPTSAT 1
1 31117U 07012A   13293.22665063  .00000863  00000-0  14782-3 0  2031
2 31117 097.8309 346.8748 0004709 215.1205 144.9680 14.71152065349399
0 EGYPTSAT 1
1 31117U 07012A   13293.49871162  .00000756  00000-0  13051-3 0  2049
2 31117 097.8308 347.1363 0004714 214.1089 145.9813 14.71152037349433
0 EGYPTSAT 1
1 31117U 07012A   13293.83878742  .00000572  00000-0  10051-3 0  2052
2 31117 097.8305 347.4629 0004781 212.9210 147.1664 14.71151485349483
0 EGYPTSAT 1
1 31117U 07012A   13294.17886357  .00000593  00000-0  10399-3 0  2060
2 31117 097.8302 347.7899 0004810 212.1302 147.9628 14.71152250349534
0 EGYPTSAT 1
1 31117U 07012A   13294.51893891  .00000547  00000-0  96489-4 0  2074
2 31117 097.8300 348.1169 0004816 210.6842 149.4093 14.71152598349588
0 EGYPTSAT 1
1 31117U 07012A   13294.85901434  .00000577  00000-0  10142-3 0  2089
2 31117 097.8298 348.4434 0004815 210.1722 149.9207 14.71153039349632
0 EGYPTSAT 1
1 31117U 07012A   13295.19908922  .00000701  00000-0  12158-3 0  2095
2 31117 097.8297 348.7705 0004869 209.0748 151.0206 14.71154283349689
0 EGYPTSAT 1
1 31117U 07012A   13295.53916366  .00000819  00000-0  14066-3 0  2106
2 31117 097.8294 349.0975 0004869 208.2515 151.8432 14.71155390349737
0 EGYPTSAT 1
1 31117U 07012A   13295.87923894  .00000679  00000-0  11788-3 0  2110
2 31117 097.8291 349.4245 0004945 206.7206 153.3725 14.71154962349784
0 EGYPTSAT 1
1 31117U 07012A   13296.21931425  .00000740  00000-0  12777-3 0  2127
2 31117 097.8290 349.7517 0004959 205.2968 154.8012 14.71155829349836
